1 37849U 11061A   24035.82717653  .00000130  00000-0  82355-4 0  9994
2 37849  98.7288 335.8341 0000823  62.3175 297.8085 14.19551710635949
